[Satellite]
VERSION=1.1
NAME=SL-3 R/B
NICKNAME=SL-3 R/B
TLE1=1 19046U 88032B   22342.49899176  .00002590  00000+0  18705-3 0  9996
TLE2=2 19046  97.4025 333.9249 0036422   8.7830 351.4026 15.04409369872778
STATUS=0
